OBJECT_NAME,OBJECT_ID,EPOCH,MEAN_MOTION,ECCENTRICITY,INCLINATION,RA_OF_ASC_NODE,ARG_OF_PERICENTER,MEAN_ANOMALY,EPHEMERIS_TYPE,CLASSIFICATION_TYPE,NORAD_CAT_ID,ELEMENT_SET_NO,REV_AT_EPOCH,BSTAR,MEAN_MOTION_DOT,MEAN_MOTION_DDOT
GSAT-7,2013-044B,2026-06-08T01:45:28.622016,1.00270775,.0002988,0.0604,100.7687,189.4065,66.6595,0,U,39234,999,4516,0,-.61E-6,0
AMOS-4,2013-045A,2026-06-08T03:33:38.729088,1.00271242,.0002577,0.0301,90.8445,324.8509,319.2583,0,U,39237,999,4686,0,.23E-6,0
AEHF-3 (USA 246),2013-050A,2026-06-07T21:23:26.071008,1.00270276,.00878,5.2717,67.2673,188.0784,197.5219,0,U,39256,999,4556,0,.44E-6,0
ASTRA 2E,2013-056A,2026-06-08T01:32:22.379424,1.00273669,.0002668,0.0676,321.6446,124.7362,221.6869,0,U,39285,999,4632,0,.166E-5,0
FM-6,2013-058A,2026-06-07T11:09:47.147328,1.00260608,.0001559,0.0094,45.4890,95.5877,165.8953,0,U,39360,999,4597,0,0,0
RADUGA-1M 3,2013-062A,2026-06-07T21:45:53.930880,1.00271889,.0001525,5.9333,72.4708,269.0242,276.2675,0,U,39375,999,4601,0,.168E-5,0
SES-8,2013-071A,2026-06-08T01:51:20.560320,1.00271333,.0002869,0.0171,315.8204,127.6822,295.8163,0,U,39460,999,4433,0,-.254E-5,0
INMARSAT 5-F1,2013-073A,2026-06-08T03:33:38.729088,1.00268595,.0000645,0.0186,1.2423,335.2417,36.0961,0,U,39476,999,4548,0,.44E-6,0
TKSAT-1 (TUPAC KATARI),2013-075A,2026-06-08T02:42:06.568992,1.00272320,.0002587,0.0248,159.8619,268.4250,141.5665,0,U,39481,999,4551,0,-.179E-5,0
EXPRESS-AM5,2013-077A,2026-06-08T05:29:36.685248,1.00273185,.0000526,0.0144,285.2314,88.8807,104.9569,0,U,39487,999,4627,0,-.264E-5,0
GSAT-14,2014-001A,2026-06-08T01:45:28.622016,1.00269298,.0000921,0.0109,352.5251,295.1186,69.1882,0,U,39498,999,4528,0,0,0
THAICOM 6,2014-002A,2026-06-08T03:29:24.235296,1.00269766,.0004566,0.0820,105.8901,357.4604,284.0393,0,U,39500,999,4536,0,-.105E-5,0
TDRS 12,2014-004A,2026-06-08T03:23:38.662080,1.00270372,.0002766,3.9679,18.9301,197.8289,49.7965,0,U,39504,999,4418,0,-.256E-5,0
ABS-2,2014-006A,2026-06-08T01:45:43.597728,1.00271573,.0004154,0.0283,71.2990,352.9186,293.6153,0,U,39508,999,4518,0,-.71E-6,0
ATHENA-FIDUS,2014-006B,2026-06-08T03:49:38.792064,1.00270606,.0001476,0.0415,101.3552,350.4289,259.9836,0,U,39509,999,4499,0,.17E-5,0
TURKSAT 4A,2014-007A,2026-06-08T03:49:38.792064,1.00270159,.000139,0.0548,293.2482,35.3032,27.4132,0,U,39522,999,4487,0,.162E-5,0
EXPRESS-AT1,2014-010A,2026-06-08T05:07:07.379904,1.00302015,.00039,0.2335,85.7642,34.3301,274.6248,0,U,39612,999,4472,0,.48E-6,0
EXPRESS-AT2,2014-010B,2026-06-08T03:22:54.857280,1.00273684,.0000209,0.0197,313.1869,64.9694,345.1178,0,U,39613,999,4440,0,.94E-6,0
AMAZONAS 4A,2014-011A,2026-06-08T02:45:51.209856,1.00273504,.0003831,0.0653,203.5870,261.1875,119.1950,0,U,39616,999,4462,0,-.237E-5,0
ASTRA 5B,2014-011B,2026-06-08T03:13:40.742112,1.00269966,.0002118,0.0567,318.0300,106.9157,263.5059,0,U,39617,999,4457,0,.152E-5,0
IRNSS-1B,2014-017A,2026-05-19T20:39:38.653920,1.00280229,.00242269,28.9733,240.8911,185.2284,176.5740,0,U,39635,999,4451,0,.103E-5,0
LUCH-5V,2014-023A,2026-06-08T03:33:46.315872,1.00267721,.0002834,5.1103,69.8404,31.0907,303.7417,0,U,39727,999,4426,0,-.253E-5,0
KAZSAT-3,2014-023B,2026-06-07T22:15:42.484320,1.00272369,.0000157,0.0288,55.6956,334.7600,258.2927,0,U,39728,999,4236,0,.76E-6,0
EUTELSAT 3B,2014-030A,2026-06-08T03:07:48.803808,1.00272545,.0004019,0.0606,354.6719,83.6127,228.2981,0,U,39773,999,4397,0,.35E-6,0
ASIASAT 8 (AMOS-7),2014-046A,2026-06-08T00:11:41.250912,1.00271619,.0001527,0.0118,297.7429,138.0583,288.8553,0,U,40107,999,10205,0,-.318E-5,0
ASIASAT 6,2014-052A,2026-06-08T02:55:38.671968,1.00268910,.0000764,0.0176,339.2993,118.4621,322.5804,0,U,40141,999,4298,0,0,0
OPTUS 10,2014-054A,2026-06-07T21:00:50.734944,1.00270486,.0002019,0.1227,5.7949,71.1216,290.5677,0,U,40146,999,4293,0,-.132E-5,0
MEASAT-3B,2014-054B,2026-06-08T03:33:01.387008,1.00272673,.0003135,0.0458,45.0152,22.1288,334.1460,0,U,40147,999,4281,0,-.226E-5,0
HIMAWARI-8,2014-060A,2026-06-07T22:39:05.692032,1.00270864,.0000851,0.0228,57.4688,43.2318,276.0876,0,U,40267,999,4266,0,-.26E-5,0
IRNSS-1C,2014-061A,2026-06-07T22:09:13.889088,1.00270792,.0022628,6.4950,89.1037,1.3950,221.1503,0,U,40269,999,4259,0,-.146E-5,0
INTELSAT 30 (IS-30),2014-062A,2026-06-07T12:58:30.649728,1.00271823,.0001065,0.0218,41.9024,4.4015,309.1838,0,U,40271,999,669,0,-.136E-5,0
ARSAT 1,2014-062B,2026-06-08T02:46:28.651296,1.00270108,.0001825,0.0442,66.1511,8.8294,151.3497,0,U,40272,999,4253,0,-.244E-5,0
