GSAT-7                  
1 39234U 13044B   26159.07324794 -.00000061  00000+0  00000+0 0  9998
2 39234   0.0604 100.7687 0002988 189.4065  66.6595  1.00270775 45164
AMOS-4                  
1 39237U 13045A   26159.14836492  .00000023  00000+0  00000+0 0  9990
2 39237   0.0301  90.8445 0002577 324.8509 319.2583  1.00271242 46866
AEHF-3 (USA 246)        
1 39256U 13050A   26158.89127397  .00000044  00000+0  00000+0 0  9998
2 39256   5.2717  67.2673 0087800 188.0784 197.5219  1.00270276 45568
ASTRA 2E                
1 39285U 13056A   26159.06414791  .00000166  00000+0  00000+0 0  9998
2 39285   0.0676 321.6446 0002668 124.7362 221.6869  1.00273669 46324
FM-6                    
1 39360U 13058A   26158.46512902  .00000000  00000+0  00000+0 0  9997
2 39360   0.0094  45.4890 0001559  95.5877 165.8953  1.00260608 45972
RADUGA-1M 3             
1 39375U 13062A   26158.90687420  .00000168  00000+0  00000+0 0  9990
2 39375   5.9333  72.4708 0001525 269.0242 276.2675  1.00271889 46010
SES-8                   
1 39460U 13071A   26159.07732130 -.00000254  00000+0  00000+0 0  9990
2 39460   0.0171 315.8204 0002869 127.6822 295.8163  1.00271333 44337
INMARSAT 5-F1           
1 39476U 13073A   26159.14836492  .00000044  00000+0  00000+0 0  9999
2 39476   0.0186   1.2423 0000645 335.2417  36.0961  1.00268595 45480
TKSAT-1 (TUPAC KATARI)  
1 39481U 13075A   26159.11257603 -.00000179  00000+0  00000+0 0  9995
2 39481   0.0248 159.8619 0002587 268.4250 141.5665  1.00272320 45519
EXPRESS-AM5             
1 39487U 13077A   26159.22889682 -.00000264  00000+0  00000+0 0  9998
2 39487   0.0144 285.2314 0000526  88.8807 104.9569  1.00273185 46279
GSAT-14                 
1 39498U 14001A   26159.07324794  .00000000  00000+0  00000+0 0  9996
2 39498   0.0109 352.5251 0000921 295.1186  69.1882  1.00269298 45282
THAICOM 6               
1 39500U 14002A   26159.14541939 -.00000105  00000+0  00000+0 0  9998
2 39500   0.0820 105.8901 0004566 357.4604 284.0393  1.00269766 45367
TDRS 12                 
1 39504U 14004A   26159.14141970 -.00000256  00000+0  00000+0 0  9992
2 39504   3.9679  18.9301 0002766 197.8289  49.7965  1.00270372 44183
ABS-2                   
1 39508U 14006A   26159.07342127 -.00000071  00000+0  00000+0 0  9992
2 39508   0.0283  71.2990 0004154 352.9186 293.6153  1.00271573 45189
ATHENA-FIDUS            
1 39509U 14006B   26159.15947676  .00000170  00000+0  00000+0 0  9991
2 39509   0.0415 101.3552 0001476 350.4289 259.9836  1.00270606 44994
TURKSAT 4A              
1 39522U 14007A   26159.15947676  .00000162  00000+0  00000+0 0  9998
2 39522   0.0548 293.2482 0001390  35.3032  27.4132  1.00270159 44876
EXPRESS-AT1             
1 39612U 14010A   26159.21327986  .00000048  00000+0  00000+0 0  9998
2 39612   0.2335  85.7642 0003900  34.3301 274.6248  1.00302015 44726
EXPRESS-AT2             
1 39613U 14010B   26159.14091270  .00000094  00000+0  00000+0 0  9996
2 39613   0.0197 313.1869 0000209  64.9694 345.1178  1.00273684 44403
AMAZONAS 4A             
1 39616U 14011A   26159.11517604 -.00000237  00000+0  00000+0 0  9991
2 39616   0.0653 203.5870 0003831 261.1875 119.1950  1.00273504 44625
ASTRA 5B                
1 39617U 14011B   26159.13449933  .00000152  00000+0  00000+0 0  9998
2 39617   0.0567 318.0300 0002118 106.9157 263.5059  1.00269966 44571
IRNSS-1B                
1 39635U 14017A   26139.86086405  .00000103  00000+0  00000+0 0  9999
2 39635  28.9733 240.8911 0024226 185.2284 176.5740  1.00280229 44519
LUCH-5V                 
1 39727U 14023A   26159.14845273 -.00000253  00000+0  00000+0 0  9994
2 39727   5.1103  69.8404 0002834  31.0907 303.7417  1.00267721 44265
KAZSAT-3                
1 39728U 14023B   26158.92757505  .00000076  00000+0  00000+0 0  9992
2 39728   0.0288  55.6956 0000157 334.7600 258.2927  1.00272369 42361
EUTELSAT 3B             
1 39773U 14030A   26159.13042597  .00000035  00000+0  00000+0 0  9997
2 39773   0.0606 354.6719 0004019  83.6127 228.2981  1.00272545 43970
ASIASAT 8 (AMOS-7)      
1 40107U 14046A   26159.00811633 -.00000318  00000+0  00000+0 0  9993
2 40107   0.0118 297.7429 0001527 138.0583 288.8553  1.00271619102051
ASIASAT 6               
1 40141U 14052A   26159.12197537  .00000000  00000+0  00000+0 0  9998
2 40141   0.0176 339.2993 0000764 118.4621 322.5804  1.00268910 42988
OPTUS 10                
1 40146U 14054A   26158.87558721 -.00000132  00000+0  00000+0 0  9999
2 40146   0.1227   5.7949 0002019  71.1216 290.5677  1.00270486 42935
MEASAT-3B               
1 40147U 14054B   26159.14793272 -.00000226  00000+0  00000+0 0  9997
2 40147   0.0458  45.0152 0003135  22.1288 334.1460  1.00272673 42811
HIMAWARI-8              
1 40267U 14060A   26158.94381588 -.00000260  00000+0  00000+0 0  9995
2 40267   0.0228  57.4688 0000851  43.2318 276.0876  1.00270864 42668
IRNSS-1C                
1 40269U 14061A   26158.92307742 -.00000146  00000+0  00000+0 0  9999
2 40269   6.4950  89.1037 0022628   1.3950 221.1503  1.00270792 42595
INTELSAT 30 (IS-30)     
1 40271U 14062A   26158.54063252 -.00000136  00000+0  00000+0 0  9995
2 40271   0.0218  41.9024 0001065   4.4015 309.1838  1.00271823  6690
ARSAT 1                 
1 40272U 14062B   26159.11560939 -.00000244  00000+0  00000+0 0  9994
2 40272   0.0442  66.1511 0001825   8.8294 151.3497  1.00270108 42537
